[{"OBJECT_NAME":"QIANFAN-35","OBJECT_ID":"2024-185S","EPOCH":"2026-03-04T12:57:33.289632","MEAN_MOTION":14.28116601,"ECCENTRICITY":0.00075819,"INCLINATION":88.9744,"RA_OF_ASC_NODE":67.2586,"ARG_OF_PERICENTER":34.9286,"MEAN_ANOMALY":325.2405,"EPHEMERIS_TYPE":0,"CLASSIFICATION_TYPE":"U","NORAD_CAT_ID":61568,"ELEMENT_SET_NO":999,"REV_AT_EPOCH":8185,"BSTAR":0.00045412555,"MEAN_MOTION_DOT":1.143e-5,"MEAN_MOTION_DDOT":0},{"OBJECT_NAME":"QIANFAN-36","OBJECT_ID":"2024-185T","EPOCH":"2026-03-04T14:22:51.346560","MEAN_MOTION":13.55613505,"ECCENTRICITY":0.00069181,"INCLINATION":88.9716,"RA_OF_ASC_NODE":72.5014,"ARG_OF_PERICENTER":148.9148,"MEAN_ANOMALY":211.2417,"EPHEMERIS_TYPE":0,"CLASSIFICATION_TYPE":"U","NORAD_CAT_ID":61569,"ELEMENT_SET_NO":999,"REV_AT_EPOCH":7901,"BSTAR":0.00016978248,"MEAN_MOTION_DOT":1.3e-6,"MEAN_MOTION_DDOT":0},{"OBJECT_NAME":"QIANFAN-37","OBJECT_ID":"2024-232B","EPOCH":"2026-03-04T14:39:45.983232","MEAN_MOTION":13.51005144,"ECCENTRICITY":0.0001683,"INCLINATION":89.005,"RA_OF_ASC_NODE":33.059,"ARG_OF_PERICENTER":96.9012,"MEAN_ANOMALY":263.233,"EPHEMERIS_TYPE":0,"CLASSIFICATION_TYPE":"U","NORAD_CAT_ID":62238,"ELEMENT_SET_NO":999,"REV_AT_EPOCH":11022,"BSTAR":0.00010181068,"MEAN_MOTION_DOT":7.8e-7,"MEAN_MOTION_DDOT":0},{"OBJECT_NAME":"QIANFAN-38","OBJECT_ID":"2024-232C","EPOCH":"2026-03-04T13:28:35.596704","MEAN_MOTION":13.51003709,"ECCENTRICITY":0.00135066,"INCLINATION":89.0057,"RA_OF_ASC_NODE":32.9854,"ARG_OF_PERICENTER":326.5673,"MEAN_ANOMALY":33.4624,"EPHEMERIS_TYPE":0,"CLASSIFICATION_TYPE":"U","NORAD_CAT_ID":62239,"ELEMENT_SET_NO":999,"REV_AT_EPOCH":11027,"BSTAR":9.5293513e-5,"MEAN_MOTION_DOT":7.3e-7,"MEAN_MOTION_DDOT":0},{"OBJECT_NAME":"QIANFAN-39","OBJECT_ID":"2024-232D","EPOCH":"2026-03-04T13:22:42.445344","MEAN_MOTION":14.25435451,"ECCENTRICITY":0.00164244,"INCLINATION":89.0055,"RA_OF_ASC_NODE":27.9486,"ARG_OF_PERICENTER":162.3715,"MEAN_ANOMALY":197.8052,"EPHEMERIS_TYPE":0,"CLASSIFICATION_TYPE":"U","NORAD_CAT_ID":62240,"ELEMENT_SET_NO":999,"REV_AT_EPOCH":11304,"BSTAR":0.00020833673,"MEAN_MOTION_DOT":5.07e-6,"MEAN_MOTION_DDOT":0},{"OBJECT_NAME":"QIANFAN-40","OBJECT_ID":"2024-232E","EPOCH":"2026-03-04T14:15:59.438016","MEAN_MOTION":13.51002941,"ECCENTRICITY":0.00128384,"INCLINATION":89.0085,"RA_OF_ASC_NODE":32.5895,"ARG_OF_PERICENTER":335.5302,"MEAN_ANOMALY":24.5238,"EPHEMERIS_TYPE":0,"CLASSIFICATION_TYPE":"U","NORAD_CAT_ID":62241,"ELEMENT_SET_NO":999,"REV_AT_EPOCH":11064,"BSTAR":9.6017076e-5,"MEAN_MOTION_DOT":7.4e-7,"MEAN_MOTION_DDOT":0},{"OBJECT_NAME":"QIANFAN-41","OBJECT_ID":"2024-232F","EPOCH":"2026-03-04T14:27:54.176832","MEAN_MOTION":13.51004587,"ECCENTRICITY":0.00128037,"INCLINATION":89.0055,"RA_OF_ASC_NODE":32.9314,"ARG_OF_PERICENTER":322.5648,"MEAN_ANOMALY":37.461,"EPHEMERIS_TYPE":0,"CLASSIFICATION_TYPE":"U","NORAD_CAT_ID":62242,"ELEMENT_SET_NO":999,"REV_AT_EPOCH":11030,"BSTAR":9.8647806e-5,"MEAN_MOTION_DOT":7.6e-7,"MEAN_MOTION_DDOT":0},{"OBJECT_NAME":"QIANFAN-42","OBJECT_ID":"2024-232G","EPOCH":"2026-03-04T12:53:39.352992","MEAN_MOTION":14.24529342,"ECCENTRICITY":0.00150406,"INCLINATION":89.0053,"RA_OF_ASC_NODE":28.0102,"ARG_OF_PERICENTER":167.8935,"MEAN_ANOMALY":192.2622,"EPHEMERIS_TYPE":0,"CLASSIFICATION_TYPE":"U","NORAD_CAT_ID":62243,"ELEMENT_SET_NO":999,"REV_AT_EPOCH":11301,"BSTAR":0.00019628031,"MEAN_MOTION_DOT":4.7e-6,"MEAN_MOTION_DDOT":0},{"OBJECT_NAME":"QIANFAN-43","OBJECT_ID":"2024-232H","EPOCH":"2026-03-04T14:21:55.075104","MEAN_MOTION":13.51004611,"ECCENTRICITY":0.00144861,"INCLINATION":89.0059,"RA_OF_ASC_NODE":33.0008,"ARG_OF_PERICENTER":327.3536,"MEAN_ANOMALY":32.6718,"EPHEMERIS_TYPE":0,"CLASSIFICATION_TYPE":"U","NORAD_CAT_ID":62244,"ELEMENT_SET_NO":999,"REV_AT_EPOCH":7891,"BSTAR":8.6510368e-5,"MEAN_MOTION_DOT":6.8e-7,"MEAN_MOTION_DDOT":0},{"OBJECT_NAME":"QIANFAN-44","OBJECT_ID":"2024-232J","EPOCH":"2026-03-04T14:04:09.204960","MEAN_MOTION":13.51002575,"ECCENTRICITY":0.00126268,"INCLINATION":89.0058,"RA_OF_ASC_NODE":32.8114,"ARG_OF_PERICENTER":325.2296,"MEAN_ANOMALY":34.8029,"EPHEMERIS_TYPE":0,"CLASSIFICATION_TYPE":"U","NORAD_CAT_ID":62245,"ELEMENT_SET_NO":999,"REV_AT_EPOCH":11038,"BSTAR":7.8239535e-5,"MEAN_MOTION_DOT":6.2e-7,"MEAN_MOTION_DDOT":0},{"OBJECT_NAME":"QIANFAN-45","OBJECT_ID":"2024-232K","EPOCH":"2026-03-04T13:16:47.468352","MEAN_MOTION":13.51000218,"ECCENTRICITY":0.00132695,"INCLINATION":89.0061,"RA_OF_ASC_NODE":32.9641,"ARG_OF_PERICENTER":324.5244,"MEAN_ANOMALY":35.5023,"EPHEMERIS_TYPE":0,"CLASSIFICATION_TYPE":"U","NORAD_CAT_ID":62246,"ELEMENT_SET_NO":999,"REV_AT_EPOCH":11030,"BSTAR":7.5591918e-5,"MEAN_MOTION_DOT":6.1e-7,"MEAN_MOTION_DDOT":0},{"OBJECT_NAME":"QIANFAN-46","OBJECT_ID":"2024-232L","EPOCH":"2026-03-04T13:52:17.023584","MEAN_MOTION":13.51003193,"ECCENTRICITY":0.00134998,"INCLINATION":89.0057,"RA_OF_ASC_NODE":33.0273,"ARG_OF_PERICENTER":330.3194,"MEAN_ANOMALY":29.719,"EPHEMERIS_TYPE":0,"CLASSIFICATION_TYPE":"U","NORAD_CAT_ID":62247,"ELEMENT_SET_NO":999,"REV_AT_EPOCH":11026,"BSTAR":9.8743309e-5,"MEAN_MOTION_DOT":7.6e-7,"MEAN_MOTION_DDOT":0},{"OBJECT_NAME":"QIANFAN-47","OBJECT_ID":"2024-232M","EPOCH":"2026-03-04T13:58:12.270144","MEAN_MOTION":13.51003074,"ECCENTRICITY":0.00139021,"INCLINATION":89.0053,"RA_OF_ASC_NODE":32.9565,"ARG_OF_PERICENTER":329.1607,"MEAN_ANOMALY":30.8726,"EPHEMERIS_TYPE":0,"CLASSIFICATION_TYPE":"U","NORAD_CAT_ID":62248,"ELEMENT_SET_NO":999,"REV_AT_EPOCH":11029,"BSTAR":7.6188367e-5,"MEAN_MOTION_DOT":6.1e-7,"MEAN_MOTION_DDOT":0},{"OBJECT_NAME":"QIANFAN-48","OBJECT_ID":"2024-232N","EPOCH":"2026-03-04T13:04:53.476032","MEAN_MOTION":13.51003255,"ECCENTRICITY":0.0016238,"INCLINATION":89.0057,"RA_OF_ASC_NODE":32.9654,"ARG_OF_PERICENTER":330.978,"MEAN_ANOMALY":29.0467,"EPHEMERIS_TYPE":0,"CLASSIFICATION_TYPE":"U","NORAD_CAT_ID":62249,"ELEMENT_SET_NO":999,"REV_AT_EPOCH":11029,"BSTAR":8.7816482e-5,"MEAN_MOTION_DOT":6.9e-7,"MEAN_MOTION_DDOT":0},{"OBJECT_NAME":"QIANFAN-49","OBJECT_ID":"2024-232P","EPOCH":"2026-03-04T14:33:46.274112","MEAN_MOTION":13.5100245,"ECCENTRICITY":0.0013141,"INCLINATION":89.0056,"RA_OF_ASC_NODE":32.9711,"ARG_OF_PERICENTER":326.4284,"MEAN_ANOMALY":33.6033,"EPHEMERIS_TYPE":0,"CLASSIFICATION_TYPE":"U","NORAD_CAT_ID":62250,"ELEMENT_SET_NO":999,"REV_AT_EPOCH":7889,"BSTAR":0.00012716252,"MEAN_MOTION_DOT":9.4e-7,"MEAN_MOTION_DDOT":0},{"OBJECT_NAME":"QIANFAN-50","OBJECT_ID":"2024-232Q","EPOCH":"2026-03-04T13:22:39.253728","MEAN_MOTION":13.51003287,"ECCENTRICITY":0.00148343,"INCLINATION":89.0061,"RA_OF_ASC_NODE":32.9885,"ARG_OF_PERICENTER":327.21,"MEAN_ANOMALY":32.813,"EPHEMERIS_TYPE":0,"CLASSIFICATION_TYPE":"U","NORAD_CAT_ID":62251,"ELEMENT_SET_NO":999,"REV_AT_EPOCH":7891,"BSTAR":7.9615068e-5,"MEAN_MOTION_DOT":6.3e-7,"MEAN_MOTION_DDOT":0},{"OBJECT_NAME":"QIANFAN-51","OBJECT_ID":"2024-232R","EPOCH":"2026-03-04T12:59:00.061152","MEAN_MOTION":13.51004121,"ECCENTRICITY":0.00124769,"INCLINATION":89.0055,"RA_OF_ASC_NODE":32.9791,"ARG_OF_PERICENTER":332.5798,"MEAN_ANOMALY":27.4694,"EPHEMERIS_TYPE":0,"CLASSIFICATION_TYPE":"U","NORAD_CAT_ID":62252,"ELEMENT_SET_NO":999,"REV_AT_EPOCH":7890,"BSTAR":9.2865721e-5,"MEAN_MOTION_DOT":7.2e-7,"MEAN_MOTION_DDOT":0}]
