QIANFAN-35              
1 61568U 24185S   26063.53996863  .00001143  00000+0  45413-3 0  9990
2 61568  88.9744  67.2586 0007581  34.9286 325.2405 14.28116601 81858
QIANFAN-36              
1 61569U 24185T   26063.59920540  .00000130  00000+0  16978-3 0  9995
2 61569  88.9716  72.5014 0006918 148.9148 211.2417 13.55613505 79015
QIANFAN-37              
1 62238U 24232B   26063.61094888  .00000078  00000+0  10181-3 0  9993
2 62238  89.0050  33.0590 0001683  96.9012 263.2330 13.51005144110229
QIANFAN-38              
1 62239U 24232C   26063.56152311  .00000073  00000+0  95294-4 0  9998
2 62239  89.0057  32.9854 0013506 326.5673  33.4624 13.51003709110273
QIANFAN-39              
1 62240U 24232D   26063.55743571  .00000507  00000+0  20834-3 0  9992
2 62240  89.0055  27.9486 0016424 162.3715 197.8052 14.25435451113046
QIANFAN-40              
1 62241U 24232E   26063.59443794  .00000074  00000+0  96017-4 0  9997
2 62241  89.0085  32.5895 0012838 335.5302  24.5238 13.51002941110644
QIANFAN-41              
1 62242U 24232F   26063.60271038  .00000076  00000+0  98648-4 0  9994
2 62242  89.0055  32.9314 0012803 322.5648  37.4610 13.51004587110301
QIANFAN-42              
1 62243U 24232G   26063.53726103  .00000470  00000+0  19628-3 0  9993
2 62243  89.0053  28.0102 0015040 167.8935 192.2622 14.24529342113012
QIANFAN-43              
1 62244U 24232H   26063.59855411  .00000068  00000+0  86510-4 0  9993
2 62244  89.0059  33.0008 0014486 327.3536  32.6718 13.51004611 78911
QIANFAN-44              
1 62245U 24232J   26063.58621765  .00000062  00000+0  78240-4 0  9991
2 62245  89.0058  32.8114 0012626 325.2296  34.8029 13.51002575110384
QIANFAN-45              
1 62246U 24232K   26063.55332718  .00000061  00000+0  75592-4 0  9992
2 62246  89.0061  32.9641 0013269 324.5244  35.5023 13.51000218110300
QIANFAN-46              
1 62247U 24232L   26063.57797481  .00000076  00000+0  98743-4 0  9996
2 62247  89.0057  33.0273 0013499 330.3194  29.7190 13.51003193110263
QIANFAN-47              
1 62248U 24232M   26063.58208646  .00000061  00000+0  76188-4 0  9991
2 62248  89.0053  32.9565 0013902 329.1607  30.8726 13.51003074110295
QIANFAN-48              
1 62249U 24232N   26063.54506338  .00000069  00000+0  87816-4 0  9995
2 62249  89.0057  32.9654 0016238 330.9780  29.0467 13.51003255110299
QIANFAN-49              
1 62250U 24232P   26063.60678558  .00000094  00000+0  12716-3 0  9992
2 62250  89.0056  32.9711 0013141 326.4284  33.6033 13.51002450 78898
QIANFAN-50              
1 62251U 24232Q   26063.55739877  .00000063  00000+0  79615-4 0  9997
2 62251  89.0061  32.9885 0014834 327.2100  32.8130 13.51003287 78914
QIANFAN-51              
1 62252U 24232R   26063.54097293  .00000072  00000+0  92866-4 0  9999
2 62252  89.0055  32.9791 0012476 332.5798  27.4694 13.51004121 78908
